0 CRRES DEB (CANISTER)
1 21636U 90065N   13282.53733486  .00000032  00000-0  73282-3 0  7744
2 21636 017.9634 339.4333 7161998 193.4517 331.0626 02.33482830187784
0 CRRES DEB (CANISTER)
1 21636U 90065N   13283.57443039  .00000349  00000-0  11654-2 0  7768
2 21636 017.9459 339.0364 7163348 194.1929 122.7665 02.33483028187806
0 CRRES DEB (CANISTER)
1 21636U 90065N   13285.56483468  .00000043  00000-0  93687-3 0  7756
2 21636 017.9622 338.2582 7161738 195.6398 355.7697 02.33483744187851
0 CRRES DEB (CANISTER)
1 21636U 90065N   13290.40683346  .00000276  00000-0  93416-3 0  7772
2 21636 017.9395 336.3752 7162714 199.1351 105.6538 02.33487238187969
0 CRRES DEB (CANISTER)
1 21636U 90065N   13290.40698154  .00000122  00000-0  96114-3 0  7762
2 21636 017.9598 336.4642 7162276 199.0315 105.7856 02.33487256187970
0 CRRES DEB (CANISTER)
1 21636U 90065N   13290.69030919  .00000072  00000-0  79975-3 0  7773
2 21636 017.9600 336.2690 7160945 199.3435 343.9173 02.33488909187976
